#aV2012  8 10  0  0  0.00000000     288 DD+AD WGS84 FIT  NGA
## 1700 432000.00000000   300.00000000 56149 0.0000000000000
+   31     1  2  3  4  5  6  7  8  9 10 11 12 13 14 15 16 17
+         18 19 20 21 22 23 25 26 27 28 29 30 31 32  0  0  0
+          0  0  0  0  0  0  0  0  0  0  0  0  0  0  0  0  0
+          0  0  0  0  0  0  0  0  0  0  0  0  0  0  0  0  0
+          0  0  0  0  0  0  0  0  0  0  0  0  0  0  0  0  0
++         2  2  2  2  2  2  2  2  2  2  2  2  2  2  2  2  2
++         2  2  2  2  2  2  2  2  2  2  2  2  2  2  2  0  0
++         0  0  0  0  0  0  0  0  0  0  0  0  0  0  0  0  0
++         0  0  0  0  0  0  0  0  0  0  0  0  0  0  0  0  0
++         0  0  0  0  0  0  0  0  0  0  0  0  0  0  0  0  0
%c cc cc ccc ccc cccc cccc cccc cccc ccccc ccccc ccccc ccccc
%c cc cc ccc ccc cccc cccc cccc cccc ccccc ccccc ccccc ccccc
%f  0.0000000  0.000000000  0.00000000000  0.000000000000000
%f  0.0000000  0.000000000  0.00000000000  0.000000000000000
%i    0    0    0    0      0      0      0      0         0
%i    0    0    0    0      0      0      0      0         0
/*      NGA, ST. LOUIS,MO.                                  
/*   EPHEMERIS COMPUTED FROM  1 DAYS OF DATA
/*   EPOCHA SMOOTHER  
/* CCCCCCCCCCCCCCCCCCCCCCCCCCCCCCCCCCCCCCCCCCCCCCCCCCCCCCCCC
*  2012  8 10  5 20  0.00000000                                                 
P  1 -12714.784638  21986.710786  -7696.363329    269.017778                    
V  1  -8568.129911   5418.592995  29717.884525      0.015151                    
P  2  20899.299461 -10009.022370 -12368.767364    399.428225                    
V  2  -8243.650317  14295.638237 -25711.896716      0.011432                    
P  3 -14741.285626   5272.406287  20980.546275     86.290537                    
V  3 -11830.696562 -25250.964763  -1662.344610      0.049421                    
P  4  17436.181634   2844.120824 -20171.539669    269.746642                    
V  4 -16097.184816  19226.043831 -11038.073087      0.113189                    
P  5  23791.460740  -3196.876443  11491.475306   -342.287434                    
V  5  13701.427583   5648.541169 -26623.791784     -0.032693                    
P  6 -16561.485325   -439.398702  20921.405249     -6.449903                    
V  6  -8783.501282 -24841.991558  -7199.019931     -0.067555                    
P  7   -852.972069  19036.368312  18406.554093    109.328567                    
V  7 -17093.968830  16021.818225 -17653.303118      0.040119                    
P  8  11034.363087   9447.297296  22334.844417      1.977701                    
V  8 -21018.073140  18573.561102   1966.884717      0.002014                    
P  9  15385.197611 -21367.180425  -4263.835917    177.652805                    
V  9   4563.827566  -2214.530029  31642.009156      0.025571                    
P 10  24476.845368   9710.213830  -5112.946449    -47.709193                    
V 10  -6612.058261   1340.122387 -30258.832136     -0.012277                    
P 11 -12314.570229  23314.236366    758.706711   -290.641742                    
V 11  -4142.119190  -3671.697357  30241.373008     -0.039006                    
P 12   8490.790996 -12832.601953 -21641.182169     84.614780                    
V 12  26478.425012   7096.750537   6371.388199      0.020611                    
P 13   5058.774091  26002.573721   -803.603030    188.967705                    
V 13  -2268.658498   -384.863435 -32338.013763     -0.025321                    
P 14 -13995.763943 -17694.118026 -13949.866631    209.557211                    
V 14  -2592.011555 -17836.586890  24739.930456      0.011225                    
P 15   7167.820597 -18428.027917  17624.416671    -93.536038                    
V 15   9217.650112  20652.258640  18052.938608     -0.005030                    
P 16 -23954.210656   1683.557222  11686.933149   -243.339698                    
V 16 -13787.272129  -5355.953534 -27166.799908     -0.009382                    
P 17  14454.910951  18003.855961 -13157.985366    106.316649                    
V 17   2514.156602  16845.560015  25228.731808     -0.030376                    
P 18 -12504.489549 -16241.607700  17454.625744    209.365517                    
V 18  21295.461772   2895.058604  17984.595039      0.018200                    
P 19  -9866.006476  15848.449137  18671.521225   -292.913308                    
V 19  -6783.733708 -23061.259602  16331.341946     -0.036009                    
P 20  -4635.156737  15358.818089 -21320.904344     66.009040                    
V 20 -26397.428795  -4863.530615   2319.824954      0.006416                    
P 21  -3756.377305 -17655.282655  19814.656103   -242.201892                    
V 21  17733.959699 -16779.531692 -12470.521229     -0.024682                    
P 22 -23595.749744 -10551.554880   6591.790312    146.422982                    
V 22   8736.556750  -1635.759016  29375.867581      0.003188                    
P 23  -1771.879363  23377.644246 -12048.846095    176.619380                    
V 23  -7048.781583 -14090.341302 -26577.148774     -0.038790                    
P 25  -6472.467730 -15721.265416 -20463.475525     39.331009                    
V 25  25471.086530   4484.237860 -11463.054920      0.010059                    
P 26  13538.812497  -5385.961932  21567.922636   -319.642809                    
V 26   6632.170817  28084.483574   3114.834642      0.122157                    
P 27  17987.864440 -19096.635176   1995.195948    418.535088                    
V 27    756.362311   3047.073019  32442.997167      0.040803                    
P 28  21451.871412  12786.709269   9906.875235    173.685104                    
V 28 -11717.061708  -1460.146444  28681.599984      0.037801                    
P 29  -3141.326706 -25864.167883  -5241.323624    342.610552                    
V 29   4244.486575   5816.618682 -30868.064018      0.040935                    
P 30 -26394.576698  -2791.838234    426.121614   -353.016698                    
V 30   -638.501772  -2943.129472 -31751.928343     -0.238937                    
P 31 -17954.782891    -23.581431 -19468.310422    266.463054                    
V 31  16547.401908 -18754.750795 -14856.490837      0.026751                    
P 32 -14165.756228  10251.188610 -19649.012401   -474.890667                    
V 32 -23925.001035  -9148.750599  12830.747555     -0.043000                    
EOF
